COSMOS 2058             
1 20465U 90010A   26194.34093977  .00001568  00000+0  89226-4 0  9991
2 20465  82.4672 283.5614 0007884 257.6747 102.3601 15.12150732961222
SL-14 R/B               
1 20466U 90010B   26194.33563850  .00000195  00000+0  20719-4 0  9990
2 20466  82.5034 149.3886 0018314 243.8747 116.0584 14.83662445947113
SL-14 R/B               
1 20511U 90018B   26194.20440757  .00000212  00000+0  23597-4 0  9992
2 20511  82.5219 105.7911 0017174  43.0004 317.2549 14.82233335941170
HST                     
1 20580U 90037B   26194.47969023  .00003777  00000+0  11487-3 0  9993
2 20580  28.4725 260.8360 0002205  88.3061 271.7788 15.31050347792608
SL-16 R/B               
1 20625U 90046B   26194.59877329  .00000186  00000+0  12074-3 0  9997
2 20625  70.9984  33.4770 0012432 117.1436 243.0956 14.15023917866207
COSMOS 2084             
1 20663U 90055A   26194.48532434  .00000907  00000+0  75331-4 0  9999
2 20663  62.7885 266.3244 0007862 316.5045  43.5434 15.06220126955264
SL-6 R/B(2)             
1 20666U 90055D   26194.37756422  .00001038  00000+0  87842-4 0  9991
2 20666  62.7802 186.2468 0044874   8.7952 351.3923 15.04083501957093
SL-8 R/B                
1 20775U 90078B   26194.33306271  .00012107  00000+0  34301-3 0  9996
2 20775  82.9030 137.9972 0343818 309.8776  47.2666 14.93534984828021
SL-8 R/B                
1 21088U 91006B   26194.64762329  .00000080  00000+0  65197-4 0  9995
2 21088  82.9410  76.3478 0023506  44.6440  14.3339 13.77508948781414
OKEAN-3                 
1 21397U 91039A   26194.59374404  .00001681  00000+0  11507-3 0  9994
2 21397  82.5140 214.7714 0012276 260.7870  99.1968 15.05428925883976
COSMOS 2151             
1 21422U 91042A   26194.60124998  .00000631  00000+0  47824-4 0  9996
2 21422  82.4980 322.1890 0012109   0.9378 359.1867 15.00510620882073
SL-14 R/B               
1 21423U 91042B   26194.14895806  .00000185  00000+0  20366-4 0  9995
2 21423  82.4934 102.5505 0016798 183.6324 176.4771 14.81917402871657
ERS-1                   
1 21574U 91050A   26194.64709961  .00000148  00000+0  62095-4 0  9996
2 21574  98.7796 215.9911 0031793 186.3506 173.7282 14.39532285833856
ARIANE 40 R/B           
1 21610U 91050F   26194.60712075  .00000126  00000+0  50056-4 0  9993
2 21610  98.1864 241.9930 0004209  64.9895 295.1733 14.42971374837158
INTERCOSMOS 25          
1 21819U 91086A   26194.60734605  .00000333  00000+0  63446-4 0  9993
2 21819  82.6011 233.8219 1484500 205.3521 146.6949 12.12239460511948
SL-8 R/B                
1 21876U 92008B   26194.45971119  .00000109  00000+0  95868-4 0  9991
2 21876  82.9271 174.2535 0035570 141.3393 331.8051 13.75983474726711
SL-8 R/B                
1 21938U 92020B   26194.11353977  .00000035  00000+0  20994-4 0  9999
2 21938  82.9286  60.5973 0028027 309.6543 204.7125 13.75550280718372
USA 81                  
1 21949U 92023A   26194.61059283  .00000112  00000+0  33893-4 0  9990
2 21949  85.0052  58.7537 0002064  65.4607 294.6801 14.32404682112819
COSMOS 2219             
1 22219U 92076A   26194.15116696 -.00000190  00000+0 -74807-4 0  9998
2 22219  71.0614 115.7964 0018137   0.6237 359.4905 14.14109328736114
SL-16 R/B               
1 22220U 92076B   26194.65496250  .00000209  00000+0  12812-3 0  9998
2 22220  71.0005 283.0261 0015026 264.0819 204.2139 14.16876813739677
COSMOS 2221             
1 22236U 92080A   26194.41555854  .00000865  00000+0  73437-4 0  9999
2 22236  82.5045 158.6352 0015598 125.6299 234.6379 14.96601001799594
SL-16 R/B               
1 22285U 92093B   26194.17811171 -.00000199  00000+0 -77414-4 0  9998
2 22285  71.0220 100.8298 0002364 139.8557 220.2741 14.15466459730917
COSMOS 2228             
1 22286U 92094A   26194.61277201  .00000919  00000+0  76105-4 0  9993
2 22286  82.5188 116.7314 0016211 234.9006 125.0698 14.97672614794909
SL-16 R/B               
1 22566U 93016B   26194.51431859  .00000107  00000+0  79211-4 0  9999
2 22566  71.0084 310.9110 0008911 141.0426 219.1340 14.15311942719979
COSMOS 2242             
1 22626U 93024A   26194.38382891  .00000912  00000+0  76929-4 0  9998
2 22626  82.5198 146.4796 0014560 239.3618 120.6169 14.96981670799199
SL-16 R/B               
1 22803U 93059B   26194.25170413 -.00000232  00000+0 -90932-4 0  9991
2 22803  70.9903 106.3392 0016548  11.4267 348.7229 14.17249915697329
ARIANE 40 R/B           
1 22830U 93061H   26194.60035560  .00000078  00000+0  44183-4 0  9999
2 22830  98.4808 260.9072 0009478 270.9240  89.0858 14.32918197712139
COSMOS 2278             
1 23087U 94023A   26194.62650704 -.00000060  00000+0 -66601-5 0  9991
2 23087  71.0525 271.6085 0009732 207.9939 152.0662 14.14393250662616
SL-16 R/B               
1 23088U 94023B   26194.33369793  .00000022  00000+0  36040-4 0  9994
2 23088  70.9982 167.0209 0001438 135.3701 224.7538 14.15024016663863
SL-16 R/B               
1 23343U 94074B   26194.66911999  .00000198  00000+0  33068-4 0  9992
2 23343  97.6987 220.2856 0007048 158.8699 317.5316 14.79523569705877
